{"type": "FeatureCollection", "features": [ {"type": "Feature", "properties": {"norad_id": 30270, "name": "FENGYUN 1C DEB", "group": "fengyun-1c-debris", "lat": 58.54279280391501, "lon": -23.195598225768876, "alt_km": 852.273580166263, "timestamp": "2025-12-03T06:58:43.512991+00:00", "meta": {"OBJECT_NAME": "FENGYUN 1C DEB", "OBJECT_ID": "1999-025YF", "EPOCH": "2025-12-02T19:38:10.612032", "MEAN_MOTION": 14.11263749, "ECCENTRICITY": 0.0006927, "INCLINATION": 98.7028, "RA_OF_ASC_NODE": 350.8456, "ARG_OF_PERICENTER": 186.6439, "MEAN_ANOMALY": 353.3862, "EPHEMERIS_TYPE": 0, "CLASSIFICATION_TYPE": "U", "NORAD_CAT_ID": 30270, "ELEMENT_SET_NO": 999, "REV_AT_EPOCH": 97221, "BSTAR": 0.00014797, "MEAN_MOTION_DOT": 2.25e-06, "MEAN_MOTION_DDOT": 0}, "tle": {"line1": "1 30270U 99025YF  25336.81817838  .00000225  00000+0  14797-3 0  9999", "line2": "2 30270  98.7028 350.8456 0006927 186.6439 353.3862 14.11263749972219"}}, "geometry": {"type": "Point", "coordinates": [-23.195598225768876, 58.54279280391501]}}, {"type": "Feature", "properties": {"norad_id": 30272, "name": "FENGYUN 1C DEB", "group": "fengyun-1c-debris", "lat": 3.9931436378029073, "lon": -134.35899041890397, "alt_km": 819.8891654994122, "timestamp": "2025-12-03T06:58:43.513001+00:00", "meta": {"OBJECT_NAME": "FENGYUN 1C DEB", "OBJECT_ID": "1999-025YH", "EPOCH": "2025-12-02T11:28:54.387264", "MEAN_MOTION": 14.14634624, "ECCENTRICITY": 0.00514048, "INCLINATION": 98.9023, "RA_OF_ASC_NODE": 44.2043, "ARG_OF_PERICENTER": 132.4128, "MEAN_ANOMALY": 228.1411, "EPHEMERIS_TYPE": 0, "CLASSIFICATION_TYPE": "U", "NORAD_CAT_ID": 30272, "ELEMENT_SET_NO": 999, "REV_AT_EPOCH": 96711, "BSTAR": 0.0017325901, "MEAN_MOTION_DOT": 3.33e-05, "MEAN_MOTION_DDOT": 0}, "tle": {"line1": "1 30272U 99025YH  25336.47840726  .00003330  00000+0  17326-2 0  9995", "line2": "2 30272  98.9023  44.2043 0051404 132.4128 228.1411 14.14634624967117"}}, "geometry": {"type": "Point", "coordinates": [-134.35899041890397, 3.9931436378029073]}}, {"type": "Feature", "properties": {"norad_id": 30273, "name": "FENGYUN 1C DEB", "group": "fengyun-1c-debris", "lat": -20.539103474635155, "lon": 168.78749571187154, "alt_km": 878.4718253992378, "timestamp": "2025-12-03T06:58:43.513011+00:00", "meta": {"OBJECT_NAME": "FENGYUN 1C DEB", "OBJECT_ID": "1999-025YJ", "EPOCH": "2025-12-02T11:56:18.213792", "MEAN_MOTION": 14.02633327, "ECCENTRICITY": 0.00606105, "INCLINATION": 98.8413, "RA_OF_ASC_NODE": 351.3605, "ARG_OF_PERICENTER": 278.2908, "MEAN_ANOMALY": 239.2777, "EPHEMERIS_TYPE": 0, "CLASSIFICATION_TYPE": "U", "NORAD_CAT_ID": 30273, "ELEMENT_SET_NO": 999, "REV_AT_EPOCH": 96385, "BSTAR": 0.00080979223, "MEAN_MOTION_DOT": 1.226e-05, "MEAN_MOTION_DDOT": 0}, "tle": {"line1": "1 30273U 99025YJ  25336.49743303  .00001226  00000+0  80979-3 0  9998", "line2": "2 30273  98.8413 351.3605 0060610 278.2908 239.2777 14.02633327963851"}}, "geometry": {"type": "Point", "coordinates": [168.78749571187154, -20.539103474635155]}}, {"type": "Feature", "properties": {"norad_id": 30274, "name": "FENGYUN 1C DEB", "group": "fengyun-1c-debris", "lat": 13.74999918932479, "lon": -72.73826640369512, "alt_km": 720.7127866453193, "timestamp": "2025-12-03T06:58:43.513022+00:00", "meta": {"OBJECT_NAME": "FENGYUN 1C DEB", "OBJECT_ID": "1999-025YK", "EPOCH": "2025-12-02T20:53:28.843008", "MEAN_MOTION": 14.51285091, "ECCENTRICITY": 0.0004813, "INCLINATION": 99.3017, "RA_OF_ASC_NODE": 104.4988, "ARG_OF_PERICENTER": 227.6367, "MEAN_ANOMALY": 263.6474, "EPHEMERIS_TYPE": 0, "CLASSIFICATION_TYPE": "U", "NORAD_CAT_ID": 30274, "ELEMENT_SET_NO": 999, "REV_AT_EPOCH": 98067, "BSTAR": 0.0035811, "MEAN_MOTION_DOT": 0.00014228, "MEAN_MOTION_DDOT": 0}, "tle": {"line1": "1 30274U 99025YK  25336.87047272  .00014228  00000+0  35811-2 0  9993", "line2": "2 30274  99.3017 104.4988 0004813 227.6367 263.6474 14.51285091980678"}}, "geometry": {"type": "Point", "coordinates": [-72.73826640369512, 13.74999918932479]}}, {"type": "Feature", "properties": {"norad_id": 30275, "name": "FENGYUN 1C DEB", "group": "fengyun-1c-debris", "lat": -27.16432013178551, "lon": 65.86972721668347, "alt_km": 761.2455377187453, "timestamp": "2025-12-03T06:58:43.513032+00:00", "meta": {"OBJECT_NAME": "FENGYUN 1C DEB", "OBJECT_ID": "1999-025YL", "EPOCH": "2025-12-02T18:23:30.149088", "MEAN_MOTION": 14.45022776, "ECCENTRICITY": 0.0039808, "INCLINATION": 98.6293, "RA_OF_ASC_NODE": 60.8678, "ARG_OF_PERICENTER": 215.2962, "MEAN_ANOMALY": 270.194, "EPHEMERIS_TYPE": 0, "CLASSIFICATION_TYPE": "U", "NORAD_CAT_ID": 30275, "ELEMENT_SET_NO": 999, "REV_AT_EPOCH": 97940, "BSTAR": 0.003041, "MEAN_MOTION_DOT": 0.00010688, "MEAN_MOTION_DDOT": 0}, "tle": {"line1": "1 30275U 99025YL  25336.76632117  .00010688  00000+0  30410-2 0  9996", "line2": "2 30275  98.6293  60.8678 0039808 215.2962 270.1940 14.45022776979406"}}, "geometry": {"type": "Point", "coordinates": [65.86972721668347, -27.16432013178551]}}, {"type": "Feature", "properties": {"norad_id": 30276, "name": "FENGYUN 1C DEB", "group": "fengyun-1c-debris", "lat": 7.564610598711139, "lon": -130.0702824174935, "alt_km": 793.0375743574459, "timestamp": "2025-12-03T06:58:43.513042+00:00", "meta": {"OBJECT_NAME": "FENGYUN 1C DEB", "OBJECT_ID": "1999-025YM", "EPOCH": "2025-12-02T11:39:52.965216", "MEAN_MOTION": 14.269213, "ECCENTRICITY": 0.00256893, "INCLINATION": 98.8606, "RA_OF_ASC_NODE": 47.928, "ARG_OF_PERICENTER": 120.5125, "MEAN_ANOMALY": 239.8596, "EPHEMERIS_TYPE": 0, "CLASSIFICATION_TYPE": "U", "NORAD_CAT_ID": 30276, "ELEMENT_SET_NO": 999, "REV_AT_EPOCH": 97384, "BSTAR": 0.0016462855, "MEAN_MOTION_DOT": 3.97e-05, "MEAN_MOTION_DDOT": 0}, "tle": {"line1": "1 30276U 99025YM  25336.48602969  .00003970  00000+0  16463-2 0  9996", "line2": "2 30276  98.8606  47.9280 0025689 120.5125 239.8596 14.26921300973844"}}, "geometry": {"type": "Point", "coordinates": [-130.0702824174935, 7.564610598711139]}}, {"type": "Feature", "properties": {"norad_id": 30277, "name": "FENGYUN 1C DEB", "group": "fengyun-1c-debris", "lat": -20.928731005304137, "lon": 51.392159149588984, "alt_km": 915.0454785399506, "timestamp": "2025-12-03T06:58:43.513052+00:00", "meta": {"OBJECT_NAME": "FENGYUN 1C DEB", "OBJECT_ID": "1999-025YN", "EPOCH": "2025-12-02T04:02:09.672000", "MEAN_MOTION": 14.13479354, "ECCENTRICITY": 0.01238031, "INCLINATION": 98.9749, "RA_OF_ASC_NODE": 46.8009, "ARG_OF_PERICENTER": 207.3565, "MEAN_ANOMALY": 181.2516, "EPHEMERIS_TYPE": 0, "CLASSIFICATION_TYPE": "U", "NORAD_CAT_ID": 30277, "ELEMENT_SET_NO": 999, "REV_AT_EPOCH": 96640, "BSTAR": 0.0015581121, "MEAN_MOTION_DOT": 3.109e-05, "MEAN_MOTION_DDOT": 0}, "tle": {"line1": "1 30277U 99025YN  25336.16816750  .00003109  00000+0  15581-2 0  9991", "line2": "2 30277  98.9749  46.8009 0123803 207.3565 181.2516 14.13479354966409"}}, "geometry": {"type": "Point", "coordinates": [51.392159149588984, -20.928731005304137]}}, {"type": "Feature", "properties": {"norad_id": 30279, "name": "FENGYUN 1C DEB", "group": "fengyun-1c-debris", "lat": -24.05826218594588, "lon": 87.50663355129305, "alt_km": 857.4179771128374, "timestamp": "2025-12-03T06:58:43.513062+00:00", "meta": {"OBJECT_NAME": "FENGYUN 1C DEB", "OBJECT_ID": "1999-025YQ", "EPOCH": "2025-12-02T18:30:01.356192", "MEAN_MOTION": 14.23040411, "ECCENTRICITY": 0.0219726, "INCLINATION": 99.1487, "RA_OF_ASC_NODE": 271.0919, "ARG_OF_PERICENTER": 101.0483, "MEAN_ANOMALY": 318.6832, "EPHEMERIS_TYPE": 0, "CLASSIFICATION_TYPE": "U", "NORAD_CAT_ID": 30279, "ELEMENT_SET_NO": 999, "REV_AT_EPOCH": 97469, "BSTAR": 0.00065101, "MEAN_MOTION_DOT": 1.831e-05, "MEAN_MOTION_DDOT": 0}, "tle": {"line1": "1 30279U 99025YQ  25336.77084903  .00001831  00000+0  65101-3 0  9991", "line2": "2 30279  99.1487 271.0919 0219726 101.0483 318.6832 14.23040411974690"}}, "geometry": {"type": "Point", "coordinates": [87.50663355129305, -24.05826218594588]}}, {"type": "Feature", "properties": {"norad_id": 30280, "name": "FENGYUN 1C DEB", "group": "fengyun-1c-debris", "lat": 80.83427789379101, "lon": -139.72238375805878, "alt_km": 898.4172541241469, "timestamp": "2025-12-03T06:58:43.513074+00:00", "meta": {"OBJECT_NAME": "FENGYUN 1C DEB", "OBJECT_ID": "1999-025YR", "EPOCH": "2025-12-02T20:34:03.746784", "MEAN_MOTION": 13.98321768, "ECCENTRICITY": 0.0080956, "INCLINATION": 98.7748, "RA_OF_ASC_NODE": 326.675, "ARG_OF_PERICENTER": 357.2854, "MEAN_ANOMALY": 71.9324, "EPHEMERIS_TYPE": 0, "CLASSIFICATION_TYPE": "U", "NORAD_CAT_ID": 30280, "ELEMENT_SET_NO": 999, "REV_AT_EPOCH": 96268, "BSTAR": 0.00035458, "MEAN_MOTION_DOT": 4.78e-06, "MEAN_MOTION_DDOT": 0}, "tle": {"line1": "1 30280U 99025YR  25336.85698781  .00000478  00000+0  35458-3 0  9995", "line2": "2 30280  98.7748 326.6750 0080956 357.2854  71.9324 13.98321768962684"}}, "geometry": {"type": "Point", "coordinates": [-139.72238375805878, 80.83427789379101]}}, {"type": "Feature", "properties": {"norad_id": 30281, "name": "FENGYUN 1C DEB", "group": "fengyun-1c-debris", "lat": -77.35015590256155, "lon": 103.97839800819325, "alt_km": 845.0249542038382, "timestamp": "2025-12-03T06:58:43.513084+00:00", "meta": {"OBJECT_NAME": "FENGYUN 1C DEB", "OBJECT_ID": "1999-025YS", "EPOCH": "2025-12-02T19:52:45.247008", "MEAN_MOTION": 14.1046148, "ECCENTRICITY": 0.0027807, "INCLINATION": 98.7563, "RA_OF_ASC_NODE": 326.898, "ARG_OF_PERICENTER": 266.1065, "MEAN_ANOMALY": 167.7277, "EPHEMERIS_TYPE": 0, "CLASSIFICATION_TYPE": "U", "NORAD_CAT_ID": 30281, "ELEMENT_SET_NO": 999, "REV_AT_EPOCH": 97081, "BSTAR": 0.00028121, "MEAN_MOTION_DOT": 4.59e-06, "MEAN_MOTION_DDOT": 0}, "tle": {"line1": "1 30281U 99025YS  25336.82830147  .00000459  00000+0  28121-3 0  9995", "line2": "2 30281  98.7563 326.8980 0027807 266.1065 167.7277 14.10461480970811"}}, "geometry": {"type": "Point", "coordinates": [103.97839800819325, -77.35015590256155]}}]}